[
   {
      "tle_1": "1 44315U 19032F   24088.60465839  .00016131  00000+0  88507-3 0  9997",
      "tle_2": "2 44315  44.9799  44.5302 0014112  37.8024 322.3842 15.13957606264607",
      "satellite_name": "WT 1B"
   },
   {
      "tle_1": "1 44316U 19032G   24088.44707833  .00006634  00000+0  46393-3 0  9997",
      "tle_2": "2 44316  44.9799  92.5696 0016004 343.5622  16.4732 15.05911895264026",
      "satellite_name": "PROX-1"
   },
   {
      "tle_1": "1 44339U 19036A   24088.50649920  .00012384  00000+0  22301-2 0  9996",
      "tle_2": "2 44339  24.0009  23.6380 0009270 182.7847 177.2596 14.64794133253398",
      "satellite_name": "NPSAT1"
   },
   {
      "tle_1": "1 44340U 19036B   24088.53542938  .00007496  00000+0  14733-2 0  9990",
      "tle_2": "2 44340  24.0007  44.1144 0010037 141.3239 218.7974 14.60367802253221",
      "satellite_name": "FORMOSAT 7-3"
   },
   {
      "tle_1": "1 44343U 19036E   24088.09739867  .00012179  00000+0  72885-3 0  9990",
      "tle_2": "2 44343  24.0004 349.5865 0001399  22.3647 337.6917 15.08971115260626",
      "satellite_name": "FORMOSAT 7-1"
   },
   {
      "tle_1": "1 44349U 19036L   24088.56032314  .00009836  00000+0  58451-3 0  9990",
      "tle_2": "2 44349  23.9982 162.4063 0002708  47.8958 312.1776 15.08983553262463",
      "satellite_name": "FORMOSAT 7-4"
   },
   {
      "tle_1": "1 44350U 19036M   24087.72260253  .00009733  00000+0  57837-3 0  9997",
      "tle_2": "2 44350  23.9986 230.2555 0002946  16.7295 343.3305 15.08968848261757",
      "satellite_name": "FORMOSAT 7-2"
   },
   {
      "tle_1": "1 44351U 19036N   24088.20777053  .00009414  00000+0  55875-3 0  9999",
      "tle_2": "2 44351  23.9982 281.2467 0002616 354.9356   5.1121 15.08971835261345",
      "satellite_name": "FORMOSAT 7-6"
   },
   {
      "tle_1": "1 44353U 19036Q   24088.40605843  .00009088  00000+0  53871-3 0  9991",
      "tle_2": "2 44353  23.9986 100.7004 0001115  83.0272 277.0358 15.08975293259603",
      "satellite_name": "FORMOSAT 7-5"
   },
   {
      "tle_1": "1 44358U 19036V   24088.25110159  .00009287  00000+0  55087-3 0  9992",
      "tle_2": "2 44358  24.0005  41.5326 0001287 191.6426 168.4048 15.08979266260108",
      "satellite_name": "METEOR-M2 2"
   },
   {
      "tle_1": "1 44387U 19038A   24088.55051858  .00000140  00000+0  80848-4 0  9992",
      "tle_2": "2 44387  98.8193  57.4924 0001393 145.1677 214.9592 14.23864817245911",
      "satellite_name": "NSL-1"
   },
   {
      "tle_1": "1 44391U 19038E   24088.52009295  .00078685  00000+0  21487-2 0  9993",
      "tle_2": "2 44391  97.8887  89.9239 0013819 138.4114 221.8182 15.37021648259607",
      "satellite_name": "VDNH-80"
   },
   {
      "tle_1": "1 44392U 19038G   24088.56047554  .00104764  00000+0  14398-2 0  9999",
      "tle_2": "2 44392  97.6848  88.8914 0008208  25.8964 334.2700 15.56904746262316",
      "satellite_name": "D-STAR ONE (LIGHTSAT)"
   },
   {
      "tle_1": "1 44393U 19038H   24088.53047164  .00133487  00000+0  15568-2 0  9998",
      "tle_2": "2 44393  97.6813  89.6578 0007029  29.4524 330.7127 15.61176598262479",
      "satellite_name": "AMGU-1 (AMURSAT)"
   },
   {
      "tle_1": "1 44394U 19038J   24087.62526333  .00243043  00000+0  18085-2 0  9995",
      "tle_2": "2 44394  97.6779  90.6986 0004577  53.4757 306.6926 15.72070720262477",
      "satellite_name": "SONATE"
   },
   {
      "tle_1": "1 44401U 19038R   24087.94628711  .01499358  14261-2  22291-2 0  9996",
      "tle_2": "2 44401  97.6635  93.0752 0004453 168.6584 191.4797 16.05211080262654",
      "satellite_name": "SOKRAT"
   },
   {
      "tle_1": "1 44404U 19038U   24088.53320743  .00262987  00000+0  18709-2 0  9996",
      "tle_2": "2 44404  97.6765  91.0425 0004901  53.3623 306.8089 15.73078573262577",
      "satellite_name": "LUCKY-7"
   },
   {
      "tle_1": "1 44406U 19038W   24088.50952508  .00036891  00000+0  10016-2 0  9991",
      "tle_2": "2 44406  97.7046  82.3620 0015515  29.7195 330.4927 15.37381795261943",
      "satellite_name": "LEMUR-2-ALEX-MADDY"
   },
   {
      "tle_1": "1 44407U 19038X   24088.50494882  .00113070  00000+0  18352-2 0  9994",
      "tle_2": "2 44407  97.6714  86.5744 0010089  22.8242 337.3456 15.52282373262343",
      "satellite_name": "BEESAT 9"
   },
   {
      "tle_1": "1 44412U 19038AC  24088.26127260  .00141084  00000+0  16306-2 0  9999",
      "tle_2": "2 44412  97.6857  88.6961 0007522  33.3213 326.8516 15.61382927262070",
      "satellite_name": "LEMUR-2-YNDRD"
   },
   {
      "tle_1": "1 44413U 19038AD  24088.49674758  .00314422  00000+0  22419-2 0  9994",
      "tle_2": "2 44413  97.6525  88.3032 0006277  58.4741 301.7134 15.72871581262494",
      "satellite_name": "JAISAT-1"
   },
   {
      "tle_1": "1 44419U 19038F   24088.52844845  .00128248  00000+0  15277-2 0  9993",
      "tle_2": "2 44419  97.6839  90.0358 0007266  32.2612 327.9088 15.60638067262490",
      "satellite_name": "COSMOS 2535"
   },
   {
      "tle_1": "1 44421U 19039A   24088.56390864  .00001860  00000+0  20722-3 0  9990",
      "tle_2": "2 44421  97.6771 133.7443 0009586  33.8329 326.3498 14.88222333255907",
      "satellite_name": "QIANSHENG 1-01"
   },
   {
      "tle_1": "1 44486U 19052A   24088.52722060  .00016201  00000+0  69790-3 0  9992",
      "tle_2": "2 44486  97.4178 157.8113 0014674 216.9371 143.0856 15.22568516254415",
      "satellite_name": "TIANQI-2"
   },
   {
      "tle_1": "1 44488U 19052C   24088.53616442  .00034280  00000+0  10637-2 0  9993",
      "tle_2": "2 44488  97.4171 162.5247 0013933 202.3345 157.7292 15.33221288254733",
      "satellite_name": "GLOBAL-4"
   },
   {
      "tle_1": "1 44499U 19054E   24088.39204650  .00016967  00000+0  63000-3 0  9990",
      "tle_2": "2 44499  45.0150  80.6695 0011127  74.8540 285.3573 15.27363506255194",
      "satellite_name": "XIAOXIANG 1-07"
   },
   {
      "tle_1": "1 44519U 19058A   24088.58345611  .00029234  00000+0  17066-2 0  9992",
      "tle_2": "2 44519  97.7894 105.9813 0013534 130.1034 230.1384 15.11805457249524",
      "satellite_name": "ZY-1 02D"
   },
   {
      "tle_1": "1 44528U 19059A   24088.53325672  .00000421  00000+0  16140-3 0  9993",
      "tle_2": "2 44528  98.4148 162.9679 0001861  74.8509 285.2882 14.35416510238040",
      "satellite_name": "TAURUS-1 (JINNIUZUO 1)"
   },
   {
      "tle_1": "1 44530U 19059C   24088.54982774  .00007219  00000+0  17286-2 0  9992",
      "tle_2": "2 44530  98.5660 206.7264 0011109 297.3332  62.6732 14.53798207240042",
      "satellite_name": "ZHUHAI-1 03A"
   },
   {
      "tle_1": "1 44534U 19060A   24088.56742005  .00063932  00000+0  11603-2 0  9992",
      "tle_2": "2 44534  97.4899 215.3562 0021309 319.2990  40.6667 15.49117427251705",
      "satellite_name": "ZHUHAI-1 03B"
   },
   {
      "tle_1": "1 44536U 19060C   24088.60595049  .00054624  00000+0  10482-2 0  9995",
      "tle_2": "2 44536  97.4896 215.4636 0017853 345.0569  15.0151 15.47634165251700",
      "satellite_name": "ZHUHAI-1 03C"
   },
   {
      "tle_1": "1 44537U 19060D   24088.59436788  .00071430  00000+0  11314-2 0  9997",
      "tle_2": "2 44537  97.4846 214.6903 0015137 297.0649  62.9059 15.53048357251754",
      "satellite_name": "ZHUHAI-1 03D"
   },
   {
      "tle_1": "1 44538U 19060E   24088.53347727  .00059130  00000+0  10927-2 0  9998",
      "tle_2": "2 44538  97.4745 213.7891 0019083 317.9921  41.9865 15.48672578251730",
      "satellite_name": "ZHUHAI-1 03E"
   },
   {
      "tle_1": "1 44539U 19060F   24088.53520230  .00051852  00000+0  10026-2 0  9994",
      "tle_2": "2 44539  97.4933 216.0711 0027544 349.5245  10.5427 15.47179695251713",
      "satellite_name": "ATLAS 5 CENTAUR DEB"
   },
   {
      "tle_1": "1 44694U 18079BG  24085.12875139 -.00000031  00000+0  00000+0 0  9990",
      "tle_2": "2 44694  12.1016 106.4602 4799334 168.1572 209.3279  1.77405350 32119",
      "satellite_name": "GAOFEN-7"
   },
   {
      "tle_1": "1 44703U 19072A   24088.56211323  .00008913  00000+0  39832-3 0  9990",
      "tle_2": "2 44703  97.3392 164.0274 0002091 334.2199  25.8933 15.21553790244390",
      "satellite_name": "STARLINK-1010"
   },
   {
      "tle_1": "1 44716U 19074D   24088.53984681  .00002067  00000+0  15760-3 0  9995",
      "tle_2": "2 44716  53.0518 139.0932 0001549  94.2176 265.8990 15.06407495241547",
      "satellite_name": "JILIN-1 GAOFEN 2A"
   },
   {
      "tle_1": "1 44777U 19075A   24088.58689081  .00010426  00000+0  52275-3 0  9994",
      "tle_2": "2 44777  97.5864 153.3016 0004231 205.6034 154.4990 15.17527221241180",
      "satellite_name": "NINGXIA-1 1"
   },
   {
      "tle_1": "1 44779U 19076A   24088.56729984  .00000078  00000+0  13547-3 0  9993",
      "tle_2": "2 44779  45.0062 201.7731 0011131 278.1147  81.8424 14.01813887224105",
      "satellite_name": "NINGXIA-1 5"
   },
   {
      "tle_1": "1 44783U 19076E   24088.58032026  .00000033  00000+0  10640-3 0  9996",
      "tle_2": "2 44783  45.0060 201.0705 0012122 267.5362  92.4084 14.01829946224028",
      "satellite_name": "KL-ALPHA A"
   },
   {
      "tle_1": "1 44785U 19077A   24088.59672141  .00000080  00000+0  97747-4 0  9994",
      "tle_2": "2 44785  88.9116 312.5100 0009750 320.6713  39.3732 13.55907331215886",
      "satellite_name": "CARTOSAT-3"
   },
   {
      "tle_1": "1 44804U 19081A   24088.55618463  .00006450  00000+0  31014-3 0  9995",
      "tle_2": "2 44804  97.5423 146.5062 0011873 103.1647 257.0913 15.19094023240397",
      "satellite_name": "JILIN-1 GAOFEN 2B"
   },
   {
      "tle_1": "1 44836U 19086A   24088.56539546  .00010345  00000+0  51893-3 0  9995",
      "tle_2": "2 44836  97.5849 153.7678 0006946 284.4802  75.5660 15.17501604237572",
      "satellite_name": "TIANQI-4A"
   },
   {
      "tle_1": "1 44842U 19087E   24088.55713958  .02021277  38898-2  20499-2 0  9997",
      "tle_2": "2 44842  97.4843 276.5080 0005983 282.0772  77.9841 16.11911097240705",
      "satellite_name": "TIANQI-4B"
   }
]